ONEWEB-0056             
1 45159U 20008AE  26170.03949106  .00000072  00000+0  17091-3 0  9991
2 45159  87.8814  35.8938 0001929  87.8060 272.3289 13.10456221308423
ONEWEB-0057             
1 45160U 20008AF  26170.05651464  .00001087  00000+0  30756-2 0  9991
2 45160  87.8835  35.9009 0002038  69.2361 290.8984 13.10387075308593
ONEWEB-0058             
1 45161U 20008AG  26170.19595640 -.00000601  00000+0 -17575-2 0  9997
2 45161  87.8826  35.8791 0001581  85.4552 274.6756 13.10374459308684
ONEWEB-0059             
1 45162U 20008AH  26170.19250189  .00004626  00000+0  13198-1 0  9999
2 45162  87.8827  35.8785 0002028  76.5180 283.6173 13.10432364308586
ONEWEB-0062             
1 45163U 20008AJ  26170.06291167 -.00000751  00000+0 -21868-2 0  9998
2 45163  87.8839  35.8921 0001505  94.1794 265.9505 13.10367755308435
ONEWEB-0065             
1 45164U 20008AK  26170.17275633 -.00000797  00000+0 -23259-2 0  9997
2 45164  87.8829  35.8781 0002042  78.9142 281.2215 13.10221335308143
ONEWEB-0066             
1 45424U 20020A   26170.05411018  .00000060  00000+0  13382-3 0  9994
2 45424  87.8883  20.6996 0001667  81.8775 278.2542 13.11413626302925
ONEWEB-0067             
1 45425U 20020B   26170.09198467  .00000017  00000+0  12866-4 0  9998
2 45425  87.8904  20.6143 0001947  82.2267 277.9082 13.11425900302985
ONEWEB-0080             
1 45426U 20020C   26170.09154883 -.00000064  00000+0 -21544-3 0  9999
2 45426  87.8893  20.6888 0001596  94.9093 265.2217 13.11419695302957
ONEWEB-0090             
1 45427U 20020D   26170.27297553  .00000445  00000+0  12210-2 0  9992
2 45427  87.8893  20.6570 0001815  88.3464 271.7872 13.11414812302943
ONEWEB-0061             
1 45428U 20020E   26170.07600269 -.00000484  00000+0 -14013-2 0  9991
2 45428  87.8893  20.6806 0001769  85.6705 274.4625 13.11416468302879
ONEWEB-0081             
1 45429U 20020F   26170.05749906 -.00000085  00000+0 -27490-3 0  9993
2 45429  87.8887  20.6947 0001789  79.4050 280.7279 13.11414081302981
ONEWEB-0069             
1 45430U 20020G   26170.05932908 -.00000215  00000+0 -64338-3 0  9998
2 45430  87.8890  20.6972 0001803  83.2891 276.8443 13.11413763302916
ONEWEB-0031             
1 45431U 20020H   26170.09480102  .00000065  00000+0  14796-3 0  9991
2 45431  87.8884  20.6952 0001720  91.1165 269.0160 13.11420054302908
ONEWEB-0027             
1 45432U 20020J   26170.23551541  .00000009  00000+0 -95416-5 0  9993
2 45432  87.9142   5.4575 0002017 103.3261 256.8096 13.17651603306629
ONEWEB-0064             
1 45433U 20020K   26170.09311138  .00000060  00000+0  13226-3 0  9997
2 45433  87.8885  20.6875 0001798  91.6919 268.4415 13.11418622302939
